OBJECT_NAME,OBJECT_ID,EPOCH,MEAN_MOTION,ECCENTRICITY,INCLINATION,RA_OF_ASC_NODE,ARG_OF_PERICENTER,MEAN_ANOMALY,EPHEMERIS_TYPE,CLASSIFICATION_TYPE,NORAD_CAT_ID,ELEMENT_SET_NO,REV_AT_EPOCH,BSTAR,MEAN_MOTION_DOT,MEAN_MOTION_DDOT
STARLINK-32804,2025-019T,2026-07-04T05:29:20.954400,15.27608551,.00011927,43.0032,150.8726,295.5727,64.5002,0,U,62846,999,8007,.13457992E-2,.36989E-3,0
STARLINK-32799,2025-019U,2026-07-04T06:41:17.576160,15.27601501,.00013498,43.0011,150.3809,274.5605,85.5093,0,U,62847,999,8008,.10510447E-2,.28792E-3,0
STARLINK-32781,2025-019V,2026-07-04T05:27:29.960640,15.27610866,.00014324,43.0029,150.8632,306.9393,53.1327,0,U,62848,999,8007,.12089642E-2,.33187E-3,0
STARLINK-32809,2025-019W,2026-07-04T06:26:30.871968,15.27623960,.0001676,42.9977,150.3035,270.5939,89.4720,0,U,62849,999,8008,.1758405E-2,.4851E-3,0
SPAINSAT NG I,2025-021A,2026-07-02T19:15:06.713856,1.00268491,.00005769,0.0193,15.3608,142.6716,80.5656,0,U,62852,999,414,0,.162E-5,0
STARLINK-32868,2025-022A,2026-07-04T01:49:43.146912,15.34435745,.00003755,53.1608,306.5910,266.4686,93.6274,0,U,62854,999,8056,.1112326E-2,.37436E-3,0
STARLINK-32867,2025-022B,2026-07-04T01:05:05.069184,15.34436702,.00010899,53.1606,308.5071,52.4119,307.6983,0,U,62855,999,7972,.9278983E-3,.31141E-3,0
STARLINK-32860,2025-022C,2026-07-03T18:10:31.266048,15.34413719,.00009717,53.1607,309.5699,81.7422,278.3691,0,U,62856,999,7968,.10940557E-2,.36786E-3,0
STARLINK-32873,2025-022D,2026-07-03T15:11:59.597088,15.34351507,.00008099,53.1580,310.2217,108.9454,251.1637,0,U,62857,999,7966,.51684776E-3,.171E-3,0
STARLINK-32866,2025-022E,2026-07-03T18:12:52.088544,15.34430119,.00008116,53.1606,308.1616,96.3682,263.7414,0,U,62858,999,7970,.1163557E-2,.39179E-3,0
STARLINK-32869,2025-022F,2026-07-04T00:55:59.969856,15.34419915,.00008529,53.1601,308.4653,101.0729,259.0370,0,U,62859,999,7972,.8211359E-3,.27486E-3,0
STARLINK-32831,2025-022G,2026-07-04T01:44:20.893920,15.34418126,.00012254,53.1613,307.9840,91.5690,268.5453,0,U,62860,999,7972,.81838701E-3,.27391E-3,0
STARLINK-32859,2025-022H,2026-07-03T18:58:59.739744,15.34432362,.00009614,53.1585,309.7777,108.2403,251.8704,0,U,62861,999,7968,.13195643E-2,.44518E-3,0
STARLINK-32864,2025-022J,2026-07-03T18:13:32.986848,15.34426704,.00017997,53.1602,309.5705,69.6502,290.4694,0,U,62862,999,7968,.99956866E-3,.33576E-3,0
STARLINK-32808,2025-022K,2026-07-04T01:02:04.449120,15.34394565,.0002792,53.1576,308.5054,85.4643,274.6679,0,U,62863,999,7972,.17989127E-2,.60891E-3,0
STARLINK-32862,2025-022L,2026-07-03T13:47:19.023072,15.34421027,.00012615,53.1589,310.5657,56.9302,303.1822,0,U,62864,999,7965,.11022071E-2,.37073E-3,0
STARLINK-32841,2025-022M,2026-07-03T15:18:04.987008,15.34424272,.00014342,53.1597,310.2454,37.5230,322.5872,0,U,62865,999,7965,.11710553E-2,.39429E-3,0
STARLINK-32695,2025-022N,2026-07-03T18:06:48.703968,15.34432257,.00007848,53.1624,308.1398,21.0805,339.0230,0,U,62866,999,7970,.98456455E-3,.3307E-3,0
STARLINK-32846,2025-022P,2026-07-03T15:24:09.407520,15.34384268,.00014614,53.1607,310.2535,61.7898,298.3252,0,U,62867,999,7966,.11677368E-2,.39265E-3,0
STARLINK-32822,2025-022Q,2026-07-03T18:07:29.858016,15.34414941,.00011809,53.1608,309.5561,66.6941,293.4186,0,U,62868,999,7968,.10329107E-2,.347E-3,0
STARLINK-32813,2025-022R,2026-07-03T15:30:11.912544,15.34402465,.00015364,53.1605,310.3004,64.7332,295.3829,0,U,62869,999,7966,.81617758E-3,.27302E-3,0
STARLINK-32861,2025-022S,2026-07-03T18:09:50.149152,15.34404425,.0000585,53.1601,308.1519,40.3375,319.7671,0,U,62870,999,7970,.1240279E-2,.41768E-3,0
STARLINK-32814,2025-022T,2026-07-04T01:47:23.071776,15.34421007,.00011366,53.1614,308.0009,87.5563,272.5570,0,U,62871,999,7973,.11782568E-2,.3967E-3,0
STARLINK-32849,2025-022U,2026-07-03T18:01:25.687200,15.34412260,.00010087,53.1609,309.5364,66.3154,293.7955,0,U,62872,999,7968,.11289329E-2,.37975E-3,0
STARLINK-32833,2025-022V,2026-07-03T18:22:38.300448,15.34436474,.00012843,53.1584,309.6241,53.8812,306.2310,0,U,62873,999,7968,.118948E-2,.40074E-3,0
STARLINK-32793,2025-022W,2026-07-04T01:20:14.784288,15.34415112,.00027106,53.1555,308.5924,75.6387,284.4916,0,U,62874,999,7972,.11430757E-2,.38463E-3,0
STARLINK-32834,2025-022X,2026-07-04T01:53:26.304288,15.34418251,.00015643,53.1596,308.0210,89.2388,270.8794,0,U,62875,999,7973,.82039256E-3,.2746E-3,0
QZS-6 (MICHIBIKI-6),2025-023A,2026-07-04T02:20:30.189696,1.00271094,.000204,0.0409,285.8861,192.2541,289.6314,0,U,62876,999,511,0,-.221E-5,0
STARLINK-11371 [DTC],2025-024A,2026-07-04T02:42:07.121088,15.70895900,.00026903,43.0008,199.9924,282.0872,77.9695,0,U,62879,999,8177,.15173658E-2,.199474E-2,0
STARLINK-11352 [DTC],2025-024B,2026-07-04T04:51:42.977664,15.70865981,.00006472,42.9980,198.9267,201.1556,158.9285,0,U,62880,999,8179,.15969007E-2,.209945E-2,0
