STARLINK-32804          
1 62846U 25019T   26185.22871475  .00036989  00000+0  13458-2 0  9998
2 62846  43.0032 150.8726 0001192 295.5727  64.5002 15.27608551 80071
STARLINK-32799          
1 62847U 25019U   26185.27867565  .00028792  00000+0  10510-2 0  9998
2 62847  43.0011 150.3809 0001349 274.5605  85.5093 15.27601501 80084
STARLINK-32781          
1 62848U 25019V   26185.22743010  .00033187  00000+0  12090-2 0  9991
2 62848  43.0029 150.8632 0001432 306.9393  53.1327 15.27610866 80074
STARLINK-32809          
1 62849U 25019W   26185.26841287  .00048510  00000+0  17584-2 0  9990
2 62849  42.9977 150.3035 0001676 270.5939  89.4720 15.27623960 80088
SPAINSAT NG I           
1 62852U 25021A   26183.80216104  .00000162  00000+0  00000+0 0  9992
2 62852   0.0193  15.3608 0000576 142.6716  80.5656  1.00268491  4146
STARLINK-32868          
1 62854U 25022A   26185.07619383  .00037436  00000+0  11123-2 0  9997
2 62854  53.1608 306.5910 0000375 266.4686  93.6274 15.34435745 80568
STARLINK-32867          
1 62855U 25022B   26185.04519756  .00031141  00000+0  92790-3 0  9995
2 62855  53.1606 308.5071 0001089  52.4119 307.6983 15.34436702 79729
STARLINK-32860          
1 62856U 25022C   26184.75730632  .00036786  00000+0  10941-2 0  9998
2 62856  53.1607 309.5699 0000971  81.7422 278.3691 15.34413719 79687
STARLINK-32873          
1 62857U 25022D   26184.63332867  .00017100  00000+0  51685-3 0  9994
2 62857  53.1580 310.2217 0000809 108.9454 251.1637 15.34351507 79663
STARLINK-32866          
1 62858U 25022E   26184.75893621  .00039179  00000+0  11636-2 0  9999
2 62858  53.1606 308.1616 0000811  96.3682 263.7414 15.34430119 79702
STARLINK-32869          
1 62859U 25022F   26185.03888854  .00027486  00000+0  82114-3 0  9992
2 62859  53.1601 308.4653 0000852 101.0729 259.0370 15.34419915 79725
STARLINK-32831          
1 62860U 25022G   26185.07246405  .00027391  00000+0  81839-3 0  9996
2 62860  53.1613 307.9840 0001225  91.5690 268.5453 15.34418126 79727
STARLINK-32859          
1 62861U 25022H   26184.79096921  .00044518  00000+0  13196-2 0  9991
2 62861  53.1585 309.7777 0000961 108.2403 251.8704 15.34432362 79686
STARLINK-32864          
1 62862U 25022J   26184.75940957  .00033576  00000+0  99957-3 0  9997
2 62862  53.1602 309.5705 0001799  69.6502 290.4694 15.34426704 79686
STARLINK-32808          
1 62863U 25022K   26185.04310705  .00060891  00000+0  17989-2 0  9997
2 62863  53.1576 308.5054 0002792  85.4643 274.6679 15.34394565 79720
STARLINK-32862          
1 62864U 25022L   26184.57452573  .00037073  00000+0  11022-2 0  9993
2 62864  53.1589 310.5657 0001261  56.9302 303.1822 15.34421027 79656
STARLINK-32841          
1 62865U 25022M   26184.63755772  .00039429  00000+0  11711-2 0  9990
2 62865  53.1597 310.2454 0001434  37.5230 322.5872 15.34424272 79650
STARLINK-32695          
1 62866U 25022N   26184.75473037  .00033070  00000+0  98456-3 0  9993
2 62866  53.1624 308.1398 0000784  21.0805 339.0230 15.34432257 79707
STARLINK-32846          
1 62867U 25022P   26184.64177555  .00039265  00000+0  11677-2 0  9999
2 62867  53.1607 310.2535 0001461  61.7898 298.3252 15.34384268 79666
STARLINK-32822          
1 62868U 25022Q   26184.75520669  .00034700  00000+0  10329-2 0  9992
2 62868  53.1608 309.5561 0001180  66.6941 293.4186 15.34414941 79685
STARLINK-32813          
1 62869U 25022R   26184.64597121  .00027302  00000+0  81618-3 0  9998
2 62869  53.1605 310.3004 0001536  64.7332 295.3829 15.34402465 79664
STARLINK-32861          
1 62870U 25022S   26184.75683043  .00041768  00000+0  12403-2 0  9998
2 62870  53.1601 308.1519 0000585  40.3375 319.7671 15.34404425 79707
STARLINK-32814          
1 62871U 25022T   26185.07457259  .00039670  00000+0  11783-2 0  9992
2 62871  53.1614 308.0009 0001136  87.5563 272.5570 15.34421007 79732
STARLINK-32849          
1 62872U 25022U   26184.75099175  .00037975  00000+0  11289-2 0  9993
2 62872  53.1609 309.5364 0001008  66.3154 293.7955 15.34412260 79683
STARLINK-32833          
1 62873U 25022V   26184.76572107  .00040074  00000+0  11895-2 0  9993
2 62873  53.1584 309.6241 0001284  53.8812 306.2310 15.34436474 79687
STARLINK-32793          
1 62874U 25022W   26185.05572667  .00038463  00000+0  11431-2 0  9993
2 62874  53.1555 308.5924 0002710  75.6387 284.4916 15.34415112 79726
STARLINK-32834          
1 62875U 25022X   26185.07877667  .00027460  00000+0  82039-3 0  9992
2 62875  53.1596 308.0210 0001564  89.2388 270.8794 15.34418251 79734
QZS-6 (MICHIBIKI-6)     
1 62876U 25023A   26185.09757164 -.00000221  00000+0  00000+0 0  9996
2 62876   0.0409 285.8861 0002040 192.2541 289.6314  1.00271094  5116
STARLINK-11371 [DTC]    
1 62879U 25024A   26185.11258242  .00199474  00000+0  15174-2 0  9995
2 62879  43.0008 199.9924 0002690 282.0872  77.9695 15.70895900 81778
STARLINK-11352 [DTC]    
1 62880U 25024B   26185.20258076  .00209945  00000+0  15969-2 0  9999
2 62880  42.9980 198.9267 0000647 201.1556 158.9285 15.70865981 81790
